     2.11           N: GPS NAV DATA                         RINEX VERSION / TYPE
teqc  2019Feb25                         20221121 12:28:53UTCPGM / RUN BY / DATE
OSX ker:10.11.6|Core i5|gcc 4.3 -m64|OSX ker:10.10+|=+      COMMENT
    1.2107D-08 -7.4506D-09 -1.1921D-07  5.9605D-08          ION ALPHA
    9.6256D+04 -3.2768D+04 -1.9661D+05  1.9661D+05          ION BETA
    6.519258022308D-09 2.131628207280D-14    61440     1556 DELTA-UTC: A0,A1,T,W
                                                            END OF HEADER
 2 09 10 31  0  0  0.0 1.863599754870D-04 3.979039320257D-12 0.000000000000D+00
    7.200000000000D+01 8.421875000000D+01 4.920919261754D-09-5.325024705110D-01
    4.375353455544D-06 9.149649646133D-03 1.081824302673D-05 5.153734806061D+03
    5.184000000000D+05 1.285225152969D-07 3.112812789101D+00-1.359730958939D-07
    9.411281613998D-01 1.606250000000D+02 2.909610037348D+00-8.286416591083D-09
    3.064413359402D-10 1.000000000000D+00 1.555000000000D+03 0.000000000000D+00
    2.000000000000D+00 0.000000000000D+00-1.722946763039D-08 7.200000000000D+01
    5.156580000000D+05 4.000000000000D+00
 4 09 10 31  0  0  0.0-3.359606489539D-04-1.796252036002D-11 0.000000000000D+00
    4.500000000000D+01 9.131250000000D+01 4.899489797702D-09 2.320165557946D+00
    4.721805453300D-06 8.972755982541D-03 1.128017902374D-05 5.153572145462D+03
    5.184000000000D+05-1.639127731323D-07 3.130969305302D+00-1.043081283569D-07
    9.403118136128D-01 1.514062500000D+02 5.475040473412D-01-8.138553289126D-09
    3.003696544589D-10 1.000000000000D+00 1.555000000000D+03 0.000000000000D+00
    2.000000000000D+00 0.000000000000D+00-6.053596735001D-09 4.500000000000D+01
    5.156580000000D+05 4.000000000000D+00
 5 09 10 31  0  0  0.0-5.398970097303D-05 7.730704965070D-12 0.000000000000D+00
    6.200000000000D+01 3.478125000000D+01 5.049138888330D-09 8.630281204710D-01
    1.922249794006D-06 1.586535247043D-03 2.330169081688D-06 5.153582695007D+03
    5.184000000000D+05 1.862645149231D-09-2.112391052606D+00-3.539025783539D-08
    9.609935209861D-01 3.319062500000D+02 2.277713768721D-01-8.610715813733D-09
    4.893060958486D-11 1.000000000000D+00 1.555000000000D+03 0.000000000000D+00
    2.000000000000D+00 0.000000000000D+00-9.313225746155D-09 6.200000000000D+01
    5.156580000000D+05 4.000000000000D+00
10 09 10 31  0  0  0.0-2.716248854995D-05-9.094947017729D-13 0.000000000000D+00
    5.100000000000D+01 3.100000000000D+01 5.192716297477D-09 6.126184418114D-01
    1.804903149605D-06 8.674996905029D-03 2.309679985046D-06 5.153389431000D+03
    5.184000000000D+05-2.793967723846D-08-2.085452975647D+00 9.499490261078D-08
    9.560474154409D-01 3.301250000000D+02 6.190383700272D-01-8.773579740527D-09
   -1.857220217820D-11 1.000000000000D+00 1.555000000000D+03 0.000000000000D+00
    2.000000000000D+00 0.000000000000D+00-2.793967723846D-09 5.100000000000D+01
    5.156580000000D+05 4.000000000000D+00
13 09 10 31  0  0  0.0 3.059762530029D-04 2.273736754432D-13 0.000000000000D+00
    4.800000000000D+01-8.603125000000D+01 3.752299155464D-09 1.039258759013D-01
   -4.556030035019D-06 3.930023754947D-03 8.966773748398D-06 5.153635389328D+03
    5.184000000000D+05-2.421438694000D-08-9.986430548631D-01 1.862645149231D-08
    9.940604859236D-01 2.238750000000D+02 1.659994858638D+00-7.806753754058D-09
   -4.403754862638D-10 1.000000000000D+00 1.555000000000D+03 0.000000000000D+00
    2.000000000000D+00 0.000000000000D+00-1.117587089539D-08 4.800000000000D+01
    5.156580000000D+05 4.000000000000D+00
23 09 10 31  0  0  0.0 3.867503255606D-04-5.684341886081D-13 0.000000000000D+00
    2.300000000000D+01-8.131250000000D+01 4.347681098369D-09-6.410582539180D-01
   -4.397705197334D-06 6.373194744810D-03 8.013099431992D-06 5.153758701324D+03
    5.184000000000D+05 6.891787052155D-08-1.054396673957D+00-7.636845111847D-08
    9.693478365197D-01 2.295312500000D+02 3.000900430863D+00-8.063550164945D-09
   -4.082312901861D-10 1.000000000000D+00 1.555000000000D+03 0.000000000000D+00
    2.000000000000D+00 0.000000000000D+00-2.002343535423D-08 2.300000000000D+01
    5.156580000000D+05 4.000000000000D+00
29 09 10 31  0  0  0.0 7.038563489914D-05 3.069544618484D-12 0.000000000000D+00
    5.400000000000D+01-5.134375000000D+01 4.467328939325D-09-3.098301621910D+00
   -2.810731530190D-06 2.932473667897D-03 9.540468454361D-06 5.153583883286D+03
    5.184000000000D+05 0.000000000000D+00 2.108089757463D+00-3.166496753693D-08
    9.599706135550D-01 1.925312500000D+02-1.271409928287D+00-7.946045270394D-09
   -4.264463346301D-10 1.000000000000D+00 1.555000000000D+03 0.000000000000D+00
    2.000000000000D+00 0.000000000000D+00-8.847564458847D-09 5.400000000000D+01
    5.156580000000D+05 4.000000000000D+00
16 09 10 31  0  0  0.0-3.198627382517D-06-4.092726157978D-12 0.000000000000D+00
    5.200000000000D+01 8.281250000000D+00 4.607691928864D-09 1.705489401896D+00
    5.457550287247D-07 5.314344074577D-03 4.511326551437D-06 5.153642524719D+03
    5.184000000000D+05 3.911554813385D-08 1.056713503170D+00 5.215406417847D-08
    9.695806160445D-01 2.957187500000D+02-2.695043027817D-01-8.203198839016D-09
    8.643217167545D-11 1.000000000000D+00 1.555000000000D+03 0.000000000000D+00
    2.000000000000D+00 0.000000000000D+00-9.778887033463D-09 5.200000000000D+01
    5.158380000000D+05 4.000000000000D+00
 7 09 10 31  0  0  0.0 8.611474186182D-06-6.821210263297D-13 0.000000000000D+00
    4.400000000000D+01 2.365625000000D+01 4.070169538899D-09-2.248451347538D+00
    1.162290573120D-06 3.240046789870D-03 1.147761940956D-05 5.153648723602D+03
    5.184000000000D+05-1.862645149231D-08-1.298627405044D-02 3.725290298462D-08
    9.696559885097D-01 1.639687500000D+02 3.006327786717D+00-7.776752504386D-09
    4.025167664390D-10 1.000000000000D+00 1.555000000000D+03 0.000000000000D+00
    2.000000000000D+00 0.000000000000D+00-1.071020960808D-08 4.400000000000D+01
    5.161680000000D+05 4.000000000000D+00
